[
  {
    "OBJECT_NAME": "STARLINK-33873",
    "OBJECT_ID": "25083X",
    "EPOCH": "2025-11-11T06:26:35.803680",
    "MEAN_MOTION": 15.27631646,
    "ECCENTRICITY": 0.0001747,
    "INCLINATION": 43.0041,
    "RA_OF_ASC_NODE": 314.1849,
    "ARG_OF_PERICENTER": 281.2562,
    "MEAN_ANOMALY": 78.8093,
    "EPHEMERIS_TYPE": 0,
    "CLASSIFICATION_TYPE": "U",
    "NORAD_CAT_ID": 63655,
    "ELEMENT_SET_NO": 999,
    "REV_AT_EPOCH": 3198,
    "BSTAR": 0.0012944,
    "MEAN_MOTION_DOT": 0.00035585,
    "MEAN_MOTION_DDOT": 0.0,
    "TLE_LINE1": "1 63655U 25083X   25315.26846995  .00035585  00000+0  12944-2 0  9995",
    "TLE_LINE2": "2 63655  43.0041 314.1849 0001747 281.2562  78.8093 15.27631646 31981",
    "COMMENT": "Grouped by shell and plane from TLE"
  },
  {
    "OBJECT_NAME": "STARLINK-33772",
    "OBJECT_ID": "25083Y",
    "EPOCH": "2025-11-11T01:20:04.958880",
    "MEAN_MOTION": 15.27607331,
    "ECCENTRICITY": 0.0001319,
    "INCLINATION": 43.0025,
    "RA_OF_ASC_NODE": 315.1603,
    "ARG_OF_PERICENTER": 279.0541,
    "MEAN_ANOMALY": 81.0161,
    "EPHEMERIS_TYPE": 0,
    "CLASSIFICATION_TYPE": "U",
    "NORAD_CAT_ID": 63656,
    "ELEMENT_SET_NO": 999,
    "REV_AT_EPOCH": 3195,
    "BSTAR": 0.0011511000000000002,
    "MEAN_MOTION_DOT": 0.00031576,
    "MEAN_MOTION_DDOT": 0.0,
    "TLE_LINE1": "1 63656U 25083Y   25315.05561295  .00031576  00000+0  11511-2 0  9995",
    "TLE_LINE2": "2 63656  43.0025 315.1603 0001319 279.0541  81.0161 15.27607331 31953",
    "COMMENT": "Grouped by shell and plane from TLE"
  },
  {
    "OBJECT_NAME": "STARLINK-33789",
    "OBJECT_ID": "25083Z",
    "EPOCH": "2025-11-11T07:25:35.863104",
    "MEAN_MOTION": 15.27613165,
    "ECCENTRICITY": 0.000113,
    "INCLINATION": 43.002,
    "RA_OF_ASC_NODE": 313.623,
    "ARG_OF_PERICENTER": 256.8033,
    "MEAN_ANOMALY": 103.2693,
    "EPHEMERIS_TYPE": 0,
    "CLASSIFICATION_TYPE": "U",
    "NORAD_CAT_ID": 63657,
    "ELEMENT_SET_NO": 999,
    "REV_AT_EPOCH": 3199,
    "BSTAR": 0.0014382000000000002,
    "MEAN_MOTION_DOT": 0.00039567,
    "MEAN_MOTION_DDOT": 0.0,
    "TLE_LINE1": "1 63657U 25083Z   25315.30944286  .00039567  00000+0  14382-2 0  9996",
    "TLE_LINE2": "2 63657  43.0020 313.6230 0001130 256.8033 103.2693 15.27613165 31991",
    "COMMENT": "Grouped by shell and plane from TLE"
  },
  {
    "OBJECT_NAME": "STARLINK-33822",
    "OBJECT_ID": "25083AA",
    "EPOCH": "2025-11-11T06:22:54.032160",
    "MEAN_MOTION": 15.27621145,
    "ECCENTRICITY": 0.0001548,
    "INCLINATION": 43.0035,
    "RA_OF_ASC_NODE": 314.1618,
    "ARG_OF_PERICENTER": 278.2302,
    "MEAN_ANOMALY": 81.8374,
    "EPHEMERIS_TYPE": 0,
    "CLASSIFICATION_TYPE": "U",
    "NORAD_CAT_ID": 63658,
    "ELEMENT_SET_NO": 999,
    "REV_AT_EPOCH": 3198,
    "BSTAR": 0.0015927,
    "MEAN_MOTION_DOT": 0.00043881,
    "MEAN_MOTION_DDOT": 0.0,
    "TLE_LINE1": "1 63658U 25083AA  25315.26590315  .00043881  00000+0  15927-2 0  9992",
    "TLE_LINE2": "2 63658  43.0035 314.1618 0001548 278.2302  81.8374 15.27621145 31987",
    "COMMENT": "Grouped by shell and plane from TLE"
  },
  {
    "OBJECT_NAME": "STARLINK-33771",
    "OBJECT_ID": "25083AB",
    "EPOCH": "2025-11-11T07:24:55.186848",
    "MEAN_MOTION": 15.27611691,
    "ECCENTRICITY": 0.0001208,
    "INCLINATION": 43.0006,
    "RA_OF_ASC_NODE": 317.1575,
    "ARG_OF_PERICENTER": 260.1285,
    "MEAN_ANOMALY": 99.943,
    "EPHEMERIS_TYPE": 0,
    "CLASSIFICATION_TYPE": "U",
    "NORAD_CAT_ID": 63659,
    "ELEMENT_SET_NO": 999,
    "REV_AT_EPOCH": 3195,
    "BSTAR": 0.0014280000000000002,
    "MEAN_MOTION_DOT": 0.00039282,
    "MEAN_MOTION_DDOT": 0.0,
    "TLE_LINE1": "1 63659U 25083AB  25315.30897207  .00039282  00000+0  14280-2 0  9999",
    "TLE_LINE2": "2 63659  43.0006 317.1575 0001208 260.1285  99.9430 15.27611691 31959",
    "COMMENT": "Grouped by shell and plane from TLE"
  },
  {
    "OBJECT_NAME": "STARLINK-33810",
    "OBJECT_ID": "25083AC",
    "EPOCH": "2025-11-11T07:12:38.670048",
    "MEAN_MOTION": 15.27613982,
    "ECCENTRICITY": 0.0001637,
    "INCLINATION": 43.0067,
    "RA_OF_ASC_NODE": 313.556,
    "ARG_OF_PERICENTER": 268.2746,
    "MEAN_ANOMALY": 91.7918,
    "EPHEMERIS_TYPE": 0,
    "CLASSIFICATION_TYPE": "U",
    "NORAD_CAT_ID": 63660,
    "ELEMENT_SET_NO": 999,
    "REV_AT_EPOCH": 3199,
    "BSTAR": 0.0012798000000000002,
    "MEAN_MOTION_DOT": 0.00035161,
    "MEAN_MOTION_DDOT": 0.0,
    "TLE_LINE1": "1 63660U 25083AC  25315.30044757  .00035161  00000+0  12798-2 0  9999",
    "TLE_LINE2": "2 63660  43.0067 313.5560 0001637 268.2746  91.7918 15.27613982 31999",
    "COMMENT": "Grouped by shell and plane from TLE"
  },
  {
    "OBJECT_NAME": "STARLINK-33823",
    "OBJECT_ID": "25083AD",
    "EPOCH": "2025-11-11T01:34:53.249376",
    "MEAN_MOTION": 15.27607162,
    "ECCENTRICITY": 0.0001702,
    "INCLINATION": 43.0037,
    "RA_OF_ASC_NODE": 315.244,
    "ARG_OF_PERICENTER": 277.6559,
    "MEAN_ANOMALY": 82.4099,
    "EPHEMERIS_TYPE": 0,
    "CLASSIFICATION_TYPE": "U",
    "NORAD_CAT_ID": 63661,
    "ELEMENT_SET_NO": 999,
    "REV_AT_EPOCH": 3195,
    "BSTAR": 0.0011457000000000001,
    "MEAN_MOTION_DOT": 0.00031426,
    "MEAN_MOTION_DDOT": 0.0,
    "TLE_LINE1": "1 63661U 25083AD  25315.06589409  .00031426  00000+0  11457-2 0  9992",
    "TLE_LINE2": "2 63661  43.0037 315.2440 0001702 277.6559  82.4099 15.27607162 31958",
    "COMMENT": "Grouped by shell and plane from TLE"
  },
  {
    "OBJECT_NAME": "STARLINK-34113",
    "OBJECT_ID": "25101S",
    "EPOCH": "2025-11-10T16:42:41.264352",
    "MEAN_MOTION": 15.27584364,
    "ECCENTRICITY": 0.0001173,
    "INCLINATION": 43.0029,
    "RA_OF_ASC_NODE": 310.2396,
    "ARG_OF_PERICENTER": 284.1372,
    "MEAN_ANOMALY": 75.9349,
    "EPHEMERIS_TYPE": 0,
    "CLASSIFICATION_TYPE": "U",
    "NORAD_CAT_ID": 64010,
    "ELEMENT_SET_NO": 999,
    "REV_AT_EPOCH": 2885,
    "BSTAR": 0.0015361,
    "MEAN_MOTION_DOT": 0.00042255,
    "MEAN_MOTION_DDOT": 0.0,
    "TLE_LINE1": "1 64010U 25101S   25314.69631093  .00042255  00000+0  15361-2 0  9997",
    "TLE_LINE2": "2 64010  43.0029 310.2396 0001173 284.1372  75.9349 15.27584364 28859",
    "COMMENT": "Grouped by shell and plane from TLE"
  },
  {
    "OBJECT_NAME": "STARLINK-34464",
    "OBJECT_ID": "25139A",
    "EPOCH": "2025-11-11T06:51:27.406368",
    "MEAN_MOTION": 15.30213686,
    "ECCENTRICITY": 0.0001187,
    "INCLINATION": 53.1592,
    "RA_OF_ASC_NODE": 317.1821,
    "ARG_OF_PERICENTER": 92.6514,
    "MEAN_ANOMALY": 267.4623,
    "EPHEMERIS_TYPE": 0,
    "CLASSIFICATION_TYPE": "U",
    "NORAD_CAT_ID": 64664,
    "ELEMENT_SET_NO": 999,
    "REV_AT_EPOCH": 2215,
    "BSTAR": 0.0008842600000000001,
    "MEAN_MOTION_DOT": 0.00025933,
    "MEAN_MOTION_DDOT": 0.0,
    "TLE_LINE1": "1 64664U 25139A   25315.28573387  .00025933  00000+0  88426-3 0  9997",
    "TLE_LINE2": "2 64664  53.1592 317.1821 0001187  92.6514 267.4623 15.30213686 22155",
    "COMMENT": "Grouped by shell and plane from TLE"
  },
  {
    "OBJECT_NAME": "STARLINK-34555",
    "OBJECT_ID": "25139B",
    "EPOCH": "2025-11-11T06:46:53.719680",
    "MEAN_MOTION": 15.30217439,
    "ECCENTRICITY": 0.0001144,
    "INCLINATION": 53.1596,
    "RA_OF_ASC_NODE": 317.1623,
    "ARG_OF_PERICENTER": 84.6072,
    "MEAN_ANOMALY": 275.506,
    "EPHEMERIS_TYPE": 0,
    "CLASSIFICATION_TYPE": "U",
    "NORAD_CAT_ID": 64665,
    "ELEMENT_SET_NO": 999,
    "REV_AT_EPOCH": 2205,
    "BSTAR": 0.0011187999999999999,
    "MEAN_MOTION_DOT": 0.00032941,
    "MEAN_MOTION_DDOT": 0.0,
    "TLE_LINE1": "1 64665U 25139B   25315.28256620  .00032941  00000+0  11188-2 0  9993",
    "TLE_LINE2": "2 64665  53.1596 317.1623 0001144  84.6072 275.5060 15.30217439 22057",
    "COMMENT": "Grouped by shell and plane from TLE"
  },
  {
    "OBJECT_NAME": "STARLINK-34390",
    "OBJECT_ID": "25139C",
    "EPOCH": "2025-11-11T05:59:47.273280",
    "MEAN_MOTION": 15.30213851,
    "ECCENTRICITY": 0.0001277,
    "INCLINATION": 53.159,
    "RA_OF_ASC_NODE": 316.958,
    "ARG_OF_PERICENTER": 75.5048,
    "MEAN_ANOMALY": 284.6095,
    "EPHEMERIS_TYPE": 0,
    "CLASSIFICATION_TYPE": "U",
    "NORAD_CAT_ID": 64666,
    "ELEMENT_SET_NO": 999,
    "REV_AT_EPOCH": 2221,
    "BSTAR": 0.00071524,
    "MEAN_MOTION_DOT": 0.00020893,
    "MEAN_MOTION_DDOT": 0.0,
    "TLE_LINE1": "1 64666U 25139C   25315.24985270  .00020893  00000+0  71524-3 0  9994",
    "TLE_LINE2": "2 64666  53.1590 316.9580 0001277  75.5048 284.6095 15.30213851 22211",
    "COMMENT": "Grouped by shell and plane from TLE"
  },
  {
    "OBJECT_NAME": "STARLINK-34382",
    "OBJECT_ID": "25139D",
    "EPOCH": "2025-11-11T07:09:43.263360",
    "MEAN_MOTION": 15.30210558,
    "ECCENTRICITY": 9.63e-05,
    "INCLINATION": 53.1586,
    "RA_OF_ASC_NODE": 317.2611,
    "ARG_OF_PERICENTER": 121.2227,
    "MEAN_ANOMALY": 238.8868,
    "EPHEMERIS_TYPE": 0,
    "CLASSIFICATION_TYPE": "U",
    "NORAD_CAT_ID": 64667,
    "ELEMENT_SET_NO": 999,
    "REV_AT_EPOCH": 2215,
    "BSTAR": 0.0012937,
    "MEAN_MOTION_DOT": 0.00038166,
    "MEAN_MOTION_DDOT": 0.0,
    "TLE_LINE1": "1 64667U 25139D   25315.29841740  .00038166  00000+0  12937-2 0  9997",
    "TLE_LINE2": "2 64667  53.1586 317.2611 0000963 121.2227 238.8868 15.30210558 22158",
    "COMMENT": "Grouped by shell and plane from TLE"
  },
  {
    "OBJECT_NAME": "STARLINK-34395",
    "OBJECT_ID": "25139E",
    "EPOCH": "2025-11-11T06:56:00.760416",
    "MEAN_MOTION": 15.30207642,
    "ECCENTRICITY": 0.0001141,
    "INCLINATION": 53.1591,
    "RA_OF_ASC_NODE": 317.2001,
    "ARG_OF_PERICENTER": 100.7471,
    "MEAN_ANOMALY": 259.3659,
    "EPHEMERIS_TYPE": 0,
    "CLASSIFICATION_TYPE": "U",
    "NORAD_CAT_ID": 64668,
    "ELEMENT_SET_NO": 999,
    "REV_AT_EPOCH": 2215,
    "BSTAR": 0.0012702,
    "MEAN_MOTION_DOT": 0.00037459,
    "MEAN_MOTION_DDOT": 0.0,
    "TLE_LINE1": "1 64668U 25139E   25315.28889769  .00037459  00000+0  12702-2 0  9994",
    "TLE_LINE2": "2 64668  53.1591 317.2001 0001141 100.7471 259.3659 15.30207642 22156",
    "COMMENT": "Grouped by shell and plane from TLE"
  }
]